IRIDIUM 126             
1 42809U 17039G   24118.57844843  .00000165  00000+0  51802-4 0  9993
2 42809  86.3944 319.8754 0002374  87.3462 272.8005 14.34215512358066
IRIDIUM 124             
1 42810U 17039H   24118.45649268  .00000590  00000+0  16958-3 0  9990
2 42810  86.4475 256.6219 0002057  90.8981 269.2456 14.43271435362505
IRIDIUM 128             
1 42811U 17039J   24118.56919823  .00000293  00000+0  97720-4 0  9997
2 42811  86.3996 351.3952 0002192  79.5113 280.6329 14.34217676358093
IRIDIUM 121             
1 42812U 17039K   24118.59746856  .00000024  00000+0  15823-5 0  9992
2 42812  86.3947 319.8896 0002156  87.5210 272.6233 14.34215051357946
IRIDIUM 133             
1 42955U 17061A   24118.60090751  .00000489  00000+0  16769-3 0  9996
2 42955  86.4001 351.4806 0002267  86.4516 273.6939 14.34221214342899
IRIDIUM 100             
1 42956U 17061B   24118.59456720  .00000467  00000+0  15969-3 0  9994
2 42956  86.3997 351.4201 0002269  86.1966 273.9489 14.34219772342899
IRIDIUM 122             
1 42957U 17061C   24118.56285554  .00000891  00000+0  31099-3 0  9990
2 42957  86.3997 351.4312 0002200  82.2783 277.8662 14.34217347342894
IRIDIUM 129             
1 42958U 17061D   24118.58822606  .00000124  00000+0  37168-4 0  9991
2 42958  86.3996 351.4792 0002242  85.0945 275.0507 14.34217727342916
